[
  {
    "OBJECT_NAME": "STARLINK-11394 [DTC]",
    "OBJECT_ID": "24231A",
    "EPOCH": "2025-11-11T06:42:17.142912",
    "MEAN_MOTION": 15.69749471,
    "ECCENTRICITY": 0.0001629,
    "INCLINATION": 53.1579,
    "RA_OF_ASC_NODE": 324.9998,
    "ARG_OF_PERICENTER": 73.9347,
    "MEAN_ANOMALY": 286.185,
    "EPHEMERIS_TYPE": 0,
    "CLASSIFICATION_TYPE": "U",
    "NORAD_CAT_ID": 62218,
    "ELEMENT_SET_NO": 999,
    "REV_AT_EPOCH": 5481,
    "BSTAR": 0.0021412000000000002,
    "MEAN_MOTION_DOT": 0.00267798,
    "MEAN_MOTION_DDOT": 0.0,
    "TLE_LINE1": "1 62218U 24231A   25315.27936508  .00267798  00000+0  21412-2 0  9997",
    "TLE_LINE2": "2 62218  53.1579 324.9998 0001629  73.9347 286.1850 15.69749471 54817",
    "COMMENT": "Grouped by shell and plane from TLE"
  },
  {
    "OBJECT_NAME": "STARLINK-11490 [DTC]",
    "OBJECT_ID": "24231B",
    "EPOCH": "2025-11-11T06:49:20.784576",
    "MEAN_MOTION": 15.69805773,
    "ECCENTRICITY": 0.000174,
    "INCLINATION": 53.1567,
    "RA_OF_ASC_NODE": 325.0326,
    "ARG_OF_PERICENTER": 59.8059,
    "MEAN_ANOMALY": 300.3131,
    "EPHEMERIS_TYPE": 0,
    "CLASSIFICATION_TYPE": "U",
    "NORAD_CAT_ID": 62219,
    "ELEMENT_SET_NO": 999,
    "REV_AT_EPOCH": 5481,
    "BSTAR": 0.0020047000000000003,
    "MEAN_MOTION_DOT": 0.00250758,
    "MEAN_MOTION_DDOT": 0.0,
    "TLE_LINE1": "1 62219U 24231B   25315.28426834  .00250758  00000+0  20047-2 0  9996",
    "TLE_LINE2": "2 62219  53.1567 325.0326 0001740  59.8059 300.3131 15.69805773 54818",
    "COMMENT": "Grouped by shell and plane from TLE"
  },
  {
    "OBJECT_NAME": "STARLINK-11466 [DTC]",
    "OBJECT_ID": "24231C",
    "EPOCH": "2025-11-11T07:03:28.134432",
    "MEAN_MOTION": 15.69816269,
    "ECCENTRICITY": 0.0001169,
    "INCLINATION": 53.158,
    "RA_OF_ASC_NODE": 325.0962,
    "ARG_OF_PERICENTER": 106.1127,
    "MEAN_ANOMALY": 254.002,
    "EPHEMERIS_TYPE": 0,
    "CLASSIFICATION_TYPE": "U",
    "NORAD_CAT_ID": 62220,
    "ELEMENT_SET_NO": 999,
    "REV_AT_EPOCH": 5481,
    "BSTAR": 0.0016214,
    "MEAN_MOTION_DOT": 0.00201577,
    "MEAN_MOTION_DDOT": 0.0,
    "TLE_LINE1": "1 62220U 24231C   25315.29407563  .00201577  00000+0  16214-2 0  9993",
    "TLE_LINE2": "2 62220  53.1580 325.0962 0001169 106.1127 254.0020 15.69816269 54812",
    "COMMENT": "Grouped by shell and plane from TLE"
  },
  {
    "OBJECT_NAME": "STARLINK-11468 [DTC]",
    "OBJECT_ID": "24231D",
    "EPOCH": "2025-11-11T07:17:35.836800",
    "MEAN_MOTION": 15.69828654,
    "ECCENTRICITY": 0.0001405,
    "INCLINATION": 53.1578,
    "RA_OF_ASC_NODE": 325.1608,
    "ARG_OF_PERICENTER": 86.5653,
    "MEAN_ANOMALY": 273.5526,
    "EPHEMERIS_TYPE": 0,
    "CLASSIFICATION_TYPE": "U",
    "NORAD_CAT_ID": 62221,
    "ELEMENT_SET_NO": 999,
    "REV_AT_EPOCH": 5481,
    "BSTAR": 0.0017446,
    "MEAN_MOTION_DOT": 0.00217471,
    "MEAN_MOTION_DDOT": 0.0,
    "TLE_LINE1": "1 62221U 24231D   25315.30388700  .00217471  00000+0  17446-2 0  9995",
    "TLE_LINE2": "2 62221  53.1578 325.1608 0001405  86.5653 273.5526 15.69828654 54814",
    "COMMENT": "Grouped by shell and plane from TLE"
  },
  {
    "OBJECT_NAME": "STARLINK-11488 [DTC]",
    "OBJECT_ID": "24231E",
    "EPOCH": "2025-11-11T06:56:24.582624",
    "MEAN_MOTION": 15.69784499,
    "ECCENTRICITY": 0.0001335,
    "INCLINATION": 53.1583,
    "RA_OF_ASC_NODE": 325.0635,
    "ARG_OF_PERICENTER": 75.2134,
    "MEAN_ANOMALY": 284.9032,
    "EPHEMERIS_TYPE": 0,
    "CLASSIFICATION_TYPE": "U",
    "NORAD_CAT_ID": 62222,
    "ELEMENT_SET_NO": 999,
    "REV_AT_EPOCH": 5481,
    "BSTAR": 0.0015403,
    "MEAN_MOTION_DOT": 0.00190965,
    "MEAN_MOTION_DDOT": 0.0,
    "TLE_LINE1": "1 62222U 24231E   25315.28917341  .00190965  00000+0  15403-2 0  9991",
    "TLE_LINE2": "2 62222  53.1583 325.0635 0001335  75.2134 284.9032 15.69784499 54817",
    "COMMENT": "Grouped by shell and plane from TLE"
  },
  {
    "OBJECT_NAME": "STARLINK-11483 [DTC]",
    "OBJECT_ID": "24231F",
    "EPOCH": "2025-11-11T07:38:38.502816",
    "MEAN_MOTION": 15.69790681,
    "ECCENTRICITY": 0.0001267,
    "INCLINATION": 53.1576,
    "RA_OF_ASC_NODE": 324.5227,
    "ARG_OF_PERICENTER": 92.6521,
    "MEAN_ANOMALY": 267.4642,
    "EPHEMERIS_TYPE": 0,
    "CLASSIFICATION_TYPE": "U",
    "NORAD_CAT_ID": 62223,
    "ELEMENT_SET_NO": 999,
    "REV_AT_EPOCH": 5482,
    "BSTAR": 0.0014459,
    "MEAN_MOTION_DOT": 0.00179014,
    "MEAN_MOTION_DDOT": 0.0,
    "TLE_LINE1": "1 62223U 24231F   25315.31850119  .00179014  00000+0  14459-2 0  9997",
    "TLE_LINE2": "2 62223  53.1576 324.5227 0001267  92.6521 267.4642 15.69790681 54822",
    "COMMENT": "Grouped by shell and plane from TLE"
  },
  {
    "OBJECT_NAME": "STARLINK-11492 [DTC]",
    "OBJECT_ID": "24231G",
    "EPOCH": "2025-11-11T07:10:32.397312",
    "MEAN_MOTION": 15.6978232,
    "ECCENTRICITY": 0.0001811,
    "INCLINATION": 53.1584,
    "RA_OF_ASC_NODE": 325.1404,
    "ARG_OF_PERICENTER": 69.2518,
    "MEAN_ANOMALY": 290.8694,
    "EPHEMERIS_TYPE": 0,
    "CLASSIFICATION_TYPE": "U",
    "NORAD_CAT_ID": 62224,
    "ELEMENT_SET_NO": 999,
    "REV_AT_EPOCH": 5481,
    "BSTAR": 0.0020918,
    "MEAN_MOTION_DOT": 0.0026177,
    "MEAN_MOTION_DDOT": 0.0,
    "TLE_LINE1": "1 62224U 24231G   25315.29898608  .00261770  00000+0  20918-2 0  9998",
    "TLE_LINE2": "2 62224  53.1584 325.1404 0001811  69.2518 290.8694 15.69782320 54814",
    "COMMENT": "Grouped by shell and plane from TLE"
  },
  {
    "OBJECT_NAME": "STARLINK-11471 [DTC]",
    "OBJECT_ID": "24231H",
    "EPOCH": "2025-11-11T06:14:01.880736",
    "MEAN_MOTION": 15.69749074,
    "ECCENTRICITY": 0.0001996,
    "INCLINATION": 53.1571,
    "RA_OF_ASC_NODE": 324.8799,
    "ARG_OF_PERICENTER": 34.0759,
    "MEAN_ANOMALY": 326.0387,
    "EPHEMERIS_TYPE": 0,
    "CLASSIFICATION_TYPE": "U",
    "NORAD_CAT_ID": 62225,
    "ELEMENT_SET_NO": 999,
    "REV_AT_EPOCH": 5481,
    "BSTAR": 0.0018552,
    "MEAN_MOTION_DOT": 0.00230903,
    "MEAN_MOTION_DDOT": 0.0,
    "TLE_LINE1": "1 62225U 24231H   25315.25974399  .00230903  00000+0  18552-2 0  9992",
    "TLE_LINE2": "2 62225  53.1571 324.8799 0001996  34.0759 326.0387 15.69749074 54815",
    "COMMENT": "Grouped by shell and plane from TLE"
  },
  {
    "OBJECT_NAME": "STARLINK-11475 [DTC]",
    "OBJECT_ID": "24231J",
    "EPOCH": "2025-11-11T06:21:05.328000",
    "MEAN_MOTION": 15.69796366,
    "ECCENTRICITY": 0.0001659,
    "INCLINATION": 53.1573,
    "RA_OF_ASC_NODE": 324.8991,
    "ARG_OF_PERICENTER": 100.8819,
    "MEAN_ANOMALY": 259.2386,
    "EPHEMERIS_TYPE": 0,
    "CLASSIFICATION_TYPE": "U",
    "NORAD_CAT_ID": 62226,
    "ELEMENT_SET_NO": 999,
    "REV_AT_EPOCH": 5481,
    "BSTAR": 0.0019520000000000002,
    "MEAN_MOTION_DOT": 0.00243842,
    "MEAN_MOTION_DDOT": 0.0,
    "TLE_LINE1": "1 62226U 24231J   25315.26464500  .00243842  00000+0  19520-2 0  9994",
    "TLE_LINE2": "2 62226  53.1573 324.8991 0001659 100.8819 259.2386 15.69796366 54819",
    "COMMENT": "Grouped by shell and plane from TLE"
  },
  {
    "OBJECT_NAME": "STARLINK-11469 [DTC]",
    "OBJECT_ID": "24231K",
    "EPOCH": "2025-11-11T06:35:13.036416",
    "MEAN_MOTION": 15.69811886,
    "ECCENTRICITY": 0.0001586,
    "INCLINATION": 53.1585,
    "RA_OF_ASC_NODE": 324.9631,
    "ARG_OF_PERICENTER": 87.3703,
    "MEAN_ANOMALY": 272.7496,
    "EPHEMERIS_TYPE": 0,
    "CLASSIFICATION_TYPE": "U",
    "NORAD_CAT_ID": 62227,
    "ELEMENT_SET_NO": 999,
    "REV_AT_EPOCH": 5481,
    "BSTAR": 0.0020008,
    "MEAN_MOTION_DOT": 0.00250318,
    "MEAN_MOTION_DDOT": 0.0,
    "TLE_LINE1": "1 62227U 24231K   25315.27445644  .00250318  00000+0  20008-2 0  9993",
    "TLE_LINE2": "2 62227  53.1585 324.9631 0001586  87.3703 272.7496 15.69811886 54812",
    "COMMENT": "Grouped by shell and plane from TLE"
  },
  {
    "OBJECT_NAME": "STARLINK-11476 [DTC]",
    "OBJECT_ID": "24231L",
    "EPOCH": "2025-11-11T07:31:34.729824",
    "MEAN_MOTION": 15.69816799,
    "ECCENTRICITY": 0.0001459,
    "INCLINATION": 53.1584,
    "RA_OF_ASC_NODE": 324.4871,
    "ARG_OF_PERICENTER": 83.0216,
    "MEAN_ANOMALY": 277.0968,
    "EPHEMERIS_TYPE": 0,
    "CLASSIFICATION_TYPE": "U",
    "NORAD_CAT_ID": 62228,
    "ELEMENT_SET_NO": 999,
    "REV_AT_EPOCH": 5483,
    "BSTAR": 0.0020387,
    "MEAN_MOTION_DOT": 0.00255271,
    "MEAN_MOTION_DDOT": 0.0,
    "TLE_LINE1": "1 62228U 24231L   25315.31359641  .00255271  00000+0  20387-2 0  9993",
    "TLE_LINE2": "2 62228  53.1584 324.4871 0001459  83.0216 277.0968 15.69816799 54836",
    "COMMENT": "Grouped by shell and plane from TLE"
  },
  {
    "OBJECT_NAME": "STARLINK-11485 [DTC]",
    "OBJECT_ID": "24231M",
    "EPOCH": "2025-11-11T06:28:09.145056",
    "MEAN_MOTION": 15.69787308,
    "ECCENTRICITY": 0.0001703,
    "INCLINATION": 53.1576,
    "RA_OF_ASC_NODE": 324.9295,
    "ARG_OF_PERICENTER": 82.5547,
    "MEAN_ANOMALY": 277.5664,
    "EPHEMERIS_TYPE": 0,
    "CLASSIFICATION_TYPE": "U",
    "NORAD_CAT_ID": 62229,
    "ELEMENT_SET_NO": 999,
    "REV_AT_EPOCH": 5481,
    "BSTAR": 0.0015448,
    "MEAN_MOTION_DOT": 0.00191562,
    "MEAN_MOTION_DDOT": 0.0,
    "TLE_LINE1": "1 62229U 24231M   25315.26955029  .00191562  00000+0  15448-2 0  9994",
    "TLE_LINE2": "2 62229  53.1576 324.9295 0001703  82.5547 277.5664 15.69787308 54815",
    "COMMENT": "Grouped by shell and plane from TLE"
  }
]